ORBCOMM FM115           
1 41186U 15081H   24261.37280567  .00005153  00000+0  10687-2 0  9995
2 41186  46.9971 256.0010 0001380 276.2514  83.8215 14.61248644467858
ORBCOMM FM108           
1 41187U 15081J   24261.44644901  .00006286  00000+0  14194-2 0  9995
2 41187  47.0048 314.0937 0001228 148.1811 211.9148 14.57033949467086
ORBCOMM FM117           
1 41188U 15081K   24261.20700731  .00005421  00000+0  12292-2 0  9991
2 41188  47.0012 314.0767 0002052 163.9233 196.1717 14.57036092467064
ORBCOMM FM116           
1 41189U 15081L   24260.71693125  .00002779  00000+0  64858-3 0  9994
2 41189  47.0018  46.2201 0003018 235.3405 124.7196 14.57029801465758
